{
    "links": {
        "self": "http://www.neowsapp.com/rest/v1/neo/3350559?api_key=iIulBulltgU6a56xZRHN4H3l9WmuAYTsLGpBGhQ2"
    },
    "id": "3350559",
    "neo_reference_id": "3350559",
    "name": "(2006 TJ7)",
    "designation": "2006 TJ7",
    "nasa_jpl_url": "http://ssd.jpl.nasa.gov/sbdb.cgi?sstr=3350559",
    "absolute_magnitude_h": 24.2,
    "estimated_diameter": {
        "kilometers": {
            "estimated_diameter_min": 0.0384197891,
            "estimated_diameter_max": 0.0859092601
        },
        "meters": {
            "estimated_diameter_min": 38.4197891064,
            "estimated_diameter_max": 85.9092601232
        },
        "miles": {
            "estimated_diameter_min": 0.0238729428,
            "estimated_diameter_max": 0.0533815229
        },
        "feet": {
            "estimated_diameter_min": 126.0491808919,
            "estimated_diameter_max": 281.8545369825
        }
    },
    "is_potentially_hazardous_asteroid": false,
    "close_approach_data": [
        {
            "close_approach_date": "2006-10-12",
            "close_approach_date_full": "2006-Oct-12 04:24",
            "epoch_date_close_approach": 1160627040000,
            "relative_velocity": {
                "kilometers_per_second": "8.291942303",
                "kilometers_per_hour": "29850.9922906568",
                "miles_per_hour": "18548.2457374917"
            },
            "miss_distance": {
                "astronomical": "0.0429252198",
                "lunar": "16.6979105022",
                "kilometers": "6421521.451361826",
                "miles": "3990148.4042361588"
            },
            "orbiting_body": "Earth"
        },
        {
            "close_approach_date": "2075-10-16",
            "close_approach_date_full": "2075-Oct-16 01:12",
            "epoch_date_close_approach": 3338413920000,
            "relative_velocity": {
                "kilometers_per_second": "8.2472851704",
                "kilometers_per_hour": "29690.2266135079",
                "miles_per_hour": "18448.3521977099"
            },
            "miss_distance": {
                "astronomical": "0.0577230792",
                "lunar": "22.4542778088",
                "kilometers": "8635249.698161304",
                "miles": "5365695.3518378352"
            },
            "orbiting_body": "Earth"
        }
    ],
    "orbital_data": {
        "orbit_id": "11",
        "orbit_determination_date": "2017-04-06 09:07:55",
        "first_observation_date": "2006-10-12",
        "last_observation_date": "2006-10-23",
        "data_arc_in_days": 11,
        "observations_used": 23,
        "orbit_uncertainty": "8",
        "minimum_orbit_intersection": ".0378768",
        "jupiter_tisserand_invariant": "3.957",
        "epoch_osculation": "2454024.5",
        "eccentricity": ".4225286757637747",
        "semi_major_axis": "1.782910243586571",
        "inclination": "11.70301066445805",
        "ascending_node_longitude": "193.5099193670052",
        "orbital_period": "869.5461712449068",
        "perihelion_distance": "1.029579539358268",
        "perihelion_argument": "193.8894263398037",
        "aphelion_distance": "2.536240947814874",
        "perihelion_time": "2454029.344923427339",
        "mean_anomaly": "357.9941577669821",
        "mean_motion": ".4140090680689184",
        "equinox": "J2000",
        "orbit_class": {
            "orbit_class_type": "AMO",
            "orbit_class_description": "Near-Earth asteroid orbits similar to that of 1221 Amor",
            "orbit_class_range": "1.017 AU < q (perihelion) < 1.3 AU"
        }
    },
    "is_sentry_object": false
}